NORAD_CAT_ID,OBJECT_NAME,OBJECT_TYPE,EPOCH,MEAN_MOTION,ECCENTRICITY,INCLINATION,RA_OF_ASC_NODE,ARG_OF_PERICENTER,MEAN_ANOMALY,BSTAR,MEAN_MOTION_DOT,MEAN_MOTION_DDOT,TLE_LINE0,TLE_LINE1,TLE_LINE2,SEMIMAJOR_AXIS,PERIOD,APOGEE,PERIGEE,DECAYED
49750.0,STARLINK-3236,PAYLOAD,2023-01-18 21:44:28,15.08855272,0.0001227,53.215,252.7451,73.1874,286.9252,0.00063702,9.869e-05,0.0,0 STARLINK-3236,1 49750U 21115AC  23018.90588861  .00009869  00000-0  63702-3 0  9997,2 49750  53.2150 252.7451 0001227  73.1874 286.9252 15.08855272 62567,6917.834,95.437,540.548,538.85,0.0
49750.0,STARLINK-3236,PAYLOAD,2023-01-19 08:52:10,15.08857018,0.0001341,53.2138,250.6663,64.2712,295.8418,0.00042204,6.438e-05,0.0,0 STARLINK-3236,1 49750U 21115AC  23019.36956507  .00006438  00000-0  42204-3 0  9997,2 49750  53.2138 250.6663 0001341  64.2712 295.8418 15.08857018 63748,6917.828,95.436,540.621,538.766,0.0
49750.0,STARLINK-3236,PAYLOAD,2023-01-19 18:24:29,15.08844228,0.0001468,53.2135,248.8819,74.1221,285.9933,6.6783e-05,7.75e-06,0.0,0 STARLINK-3236,1 49750U 21115AC  23019.76700763  .00000775  00000-0  66783-4 0  9999,2 49750  53.2135 248.8819 0001468  74.1221 285.9933 15.08844228 63800,6917.866999999999,95.437,540.748,538.717,0.0
49750.0,STARLINK-3236,PAYLOAD,2023-01-19 21:35:15,15.08846419,0.0001346,53.2135,248.2871,77.4803,282.6339,0.00012971,1.777e-05,0.0,0 STARLINK-3236,1 49750U 21115AC  23019.89948623  .00001777  00000-0  12971-3 0  9994,2 49750  53.2135 248.2871 0001346  77.4803 282.6339 15.08846419 62716,6917.861,95.437,540.6569999999999,538.795,0.0
49750.0,STARLINK-3236,PAYLOAD,2023-01-20 21:26:02,15.0884113,0.000133,53.2146,243.8239,83.321,276.7933,0.00012036,1.628e-05,0.0,0 STARLINK-3236,1 49750U 21115AC  23020.89308881  .00001628  00000-0  12036-3 0  9999,2 49750  53.2146 243.8239 0001330  83.3210 276.7933 15.08841130 63976,6917.877,95.437,540.6619999999999,538.822,0.0
49750.0,STARLINK-3236,PAYLOAD,2023-01-22 13:10:41,15.08832973,0.0001175,53.2139,236.3926,83.891,276.2216,9.0257e-05,1.149e-05,0.0,0 STARLINK-3236,1 49750U 21115AC  23022.54909564  .00001149  00000-0  90257-4 0  9998,2 49750  53.2139 236.3926 0001175  83.8910 276.2216 15.08832973 64220,6917.901999999999,95.438,540.58,538.9540000000001,0.0
49750.0,STARLINK-3236,PAYLOAD,2023-01-23 14:36:52,15.08831243,0.0001254,53.2153,231.633,133.4085,226.7012,8.463100000000001e-05,1.059e-05,0.0,0 STARLINK-3236,1 49750U 21115AC  23023.60893760  .00001059  00000-0  84631-4 0  9995,2 49750  53.2153 231.6330 0001254 133.4085 226.7012 15.08831243 64386,6917.906999999999,95.438,540.64,538.905,0.0
49750.0,STARLINK-3236,PAYLOAD,2023-01-24 19:13:48,15.08840209,0.0001122,53.2151,226.2797,100.6891,259.4227,0.00013185,1.811e-05,0.0,0 STARLINK-3236,1 49750U 21115AC  23024.80125499  .00001811  00000-0  13185-3 0  9996,2 49750  53.2151 226.2797 0001122 100.6891 259.4227 15.08840209 64569,6917.88,95.438,540.521,538.969,0.0
49750.0,STARLINK-3236,PAYLOAD,2023-01-25 07:56:53,15.08843266,0.0001065999999999,53.215,223.9005,97.0561,263.0553,4.0694e-05,3.6000000000000003e-06,0.0,0 STARLINK-3236,1 49750U 21115AC  23025.33117451  .00000360  00000-0  40694-4 0  9998,2 49750  53.2150 223.9005 0001066  97.0561 263.0553 15.08843266 63539,6917.87,95.437,540.4730000000001,538.998,0.0
49750.0,STARLINK-3236,PAYLOAD,2023-01-25 19:04:35,15.08837504,0.0001074,53.215,221.8188,97.2119,262.8995,0.00011,1.463e-05,0.0,0 STARLINK-3236,1 49750U 21115AC  23025.79485796  .00001463  00000-0  11000-3 0  9991,2 49750  53.2150 221.8188 0001074  97.2119 262.8995 15.08837504 64714,6917.888000000001,95.438,540.496,539.01,0.0
49750.0,STARLINK-3236,PAYLOAD,2023-01-26 06:12:18,15.08827837,0.000109,53.2151,219.7373,98.5449,261.5667,0.00027532,4.095e-05,0.0,0 STARLINK-3236,1 49750U 21115AC  23026.25854206  .00004095  00000-0  27532-3 0  9990,2 49750  53.2151 219.7373 0001090  98.5449 261.5667 15.08827837 63679,6917.918000000001,95.438,540.5369999999999,539.029,0.0
49750.0,STARLINK-3236,PAYLOAD,2023-01-26 20:30:45,15.08843413,0.0001082999999999,53.2151,217.0608,95.0746,265.03700000000003,6.5717e-05,7.58e-06,0.0,0 STARLINK-3236,1 49750U 21115AC  23026.85469440  .00000758  00000-0  65717-4 0  9998,2 49750  53.2151 217.0608 0001083  95.0746 265.0370 15.08843413 64876,6917.87,95.437,540.484,538.986,0.0
49750.0,STARLINK-3236,PAYLOAD,2023-01-27 12:24:37,15.08836643,0.0001105999999999,53.2149,214.0874,94.2195,265.8924,4.2986000000000005e-05,3.96e-06,0.0,0 STARLINK-3236,1 49750U 21115AC  23027.51709850  .00000396  00000-0  42986-4 0  9995,2 49750  53.2149 214.0874 0001106  94.2195 265.8924 15.08836643 64971,6917.891,95.438,540.521,538.991,0.0
49750.0,STARLINK-3236,PAYLOAD,2023-01-27 18:46:09,15.08839483,0.0001113,53.2148,212.8982,92.0826,268.0294,5.9378e-05,6.57e-06,0.0,0 STARLINK-3236,1 49750U 21115AC  23027.78205660  .00000657  00000-0  59378-4 0  9997,2 49750  53.2148 212.8982 0001113  92.0826 268.0294 15.08839483 63903,6917.882,95.438,540.5169999999999,538.977,0.0
49750.0,STARLINK-3236,PAYLOAD,2023-01-28 18:36:56,15.08840029,0.000115,53.2147,208.4378,87.2414,272.871,4.985e-05,5.06e-06,0.0,0 STARLINK-3236,1 49750U 21115AC  23028.77565641  .00000506  00000-0  49850-4 0  9992,2 49750  53.2147 208.4378 0001150  87.2414 272.8710 15.08840029 65166,6917.88,95.438,540.541,538.95,0.0
49750.0,STARLINK-3236,PAYLOAD,2023-01-29 16:52:20,15.08837363,0.0001138,53.2149,204.2744,85.3241,274.7881,5.6462e-05,6.11e-06,0.0,0 STARLINK-3236,1 49750U 21115AC  23029.70301831  .00000611  00000-0  56462-4 0  9999,2 49750  53.2149 204.2744 0001138  85.3241 274.7881 15.08837363 64191,6917.888,95.438,540.541,538.966,0.0
49750.0,STARLINK-3236,PAYLOAD,2023-01-30 04:00:02,15.08836178,0.000113,53.2151,202.1924,83.1584,276.9537,2.9537e-05,1.82e-06,0.0,0 STARLINK-3236,1 49750U 21115AC  23030.16670037  .00000182  00000-0  29537-4 0  9994,2 49750  53.2151 202.1924 0001130  83.1584 276.9537 15.08836178 65375,6917.892,95.438,540.539,538.975,0.0
49750.0,STARLINK-3236,PAYLOAD,2023-01-30 13:32:22,15.08830531,0.0001135,53.2151,200.4082,83.3358,276.7764,-3.0127e-05,-7.67e-06,0.0,0 STARLINK-3236,1 49750U 21115AC  23030.56414709 -.00000767  00000-0 -30127-4 0  9998,2 49750  53.2151 200.4082 0001135  83.3358 276.7764 15.08830531 65431,6917.909,95.438,540.56,538.989,0.0
49750.0,STARLINK-3236,PAYLOAD,2023-01-30 19:53:54,15.08834708,0.0001143,53.2151,199.2188,82.7957,277.3165,4.7611e-06,-2.12e-06,0.0,0 STARLINK-3236,1 49750U 21115AC  23030.82910438 -.00000212  00000-0  47611-5 0  9998,2 49750  53.2151 199.2188 0001143  82.7957 277.3165 15.08834708 64363,6917.897,95.438,540.552,538.971,0.0
49750.0,STARLINK-3236,PAYLOAD,2023-01-31 05:26:13,15.08837139,0.000112,53.2152,197.4347,80.8571,279.2548,3.8308e-05,3.22e-06,0.0,0 STARLINK-3236,1 49750U 21115AC  23031.22654290  .00000322  00000-0  38308-4 0  9997,2 49750  53.2152 197.4347 0001120  80.8571 279.2548 15.08837139 65534,6917.889,95.438,540.529,538.979,0.0
49750.0,STARLINK-3236,PAYLOAD,2023-01-31 13:23:08,15.08839836,0.0001094,53.2152,195.9473,88.7814,271.3303,6.7471e-05,7.86e-06,0.0,0 STARLINK-3236,1 49750U 21115AC  23031.55774034  .00000786  00000-0  67471-4 0  9999,2 49750  53.2152 195.9473 0001094  88.7814 271.3303 15.08839836 64474,6917.881,95.438,540.503,538.989,0.0
49750.0,STARLINK-3236,PAYLOAD,2023-02-01 11:38:33,15.08832612,0.0001086,53.2152,191.784,90.848,269.2636,6.8374e-05,8e-06,0.0,0 STARLINK-3236,1 49750U 21115AC  23032.48510536  .00000800  00000-0  68374-4 0  9997,2 49750  53.2152 191.7840 0001086  90.8480 269.2636 15.08832612 65729,6917.903,95.438,540.519,539.017,0.0
49750.0,STARLINK-3236,PAYLOAD,2023-02-02 09:53:56,15.08841034,0.0001159,53.2152,187.6207,89.9487,270.1638,2.324e-05,8.2e-07,0.0,0 STARLINK-3236,1 49750U 21115AC  23033.41246272  .00000082  00000-0  23240-4 0  9999,2 49750  53.2152 187.6207 0001159  89.9487 270.1638 15.08841034 64750,6917.877,95.437,540.544,538.94,0.0
49750.0,STARLINK-3236,PAYLOAD,2023-02-02 19:26:15,15.08844682,0.0001298,53.2149,185.8364,88.9714,271.1427,4.7419e-05,4.67e-06,0.0,0 STARLINK-3236,1 49750U 21115AC  23033.80989915  .00000467  00000-0  47419-4 0  9991,2 49750  53.2149 185.8364 0001298  88.9714 271.1427 15.08844682 65925,6917.866,95.437,540.629,538.833,0.0
49750.0,STARLINK-3236,PAYLOAD,2023-02-03 09:44:43,15.08841469,0.0001401,53.2148,183.1623,85.8139,274.3013,-3.3994e-05,-8.29e-06,0.0,0 STARLINK-3236,1 49750U 21115AC  23034.40606369 -.00000829  00000-0 -33994-4 0  9994,2 49750  53.2148 183.1623 0001401  85.8139 274.3013 15.08841469 66013,6917.876,95.437,540.71,538.772,0.0
49750.0,STARLINK-3236,PAYLOAD,2023-02-03 19:17:02,15.08844304,0.0001211,53.2146,181.3781,77.4726,282.6401,-2.827e-05,-7.38e-06,0.0,0 STARLINK-3236,1 49750U 21115AC  23034.80350086 -.00000738  00000-0 -28270-4 0  9990,2 49750  53.2146 181.3781 0001211  77.4726 282.6401 15.08844304 64960,6917.867,95.437,540.57,538.894,0.0
49750.0,STARLINK-3236,PAYLOAD,2023-02-04 14:21:40,15.08839872,0.0001266,53.2149,177.8097,82.5247,277.5889,5.8673e-06,-1.94e-06,0.0,0 STARLINK-3236,1 49750U 21115AC  23035.59838325 -.00000194  00000-0  58673-5 0  9990,2 49750  53.2149 177.8097 0001266  82.5247 277.5889 15.08839872 66192,6917.881,95.438,540.622,538.87,0.0
49750.0,STARLINK-3236,PAYLOAD,2023-02-04 19:07:49,15.0884421,0.0001205,53.2149,176.9147,101.4178,258.6949,3.4323e-05,2.58e-06,0.0,0 STARLINK-3236,1 49750U 21115AC  23035.79709861  .00000258  00000-0  34323-4 0  9999,2 49750  53.2149 176.9147 0001205 101.4178 258.6949 15.08844210 65115,6917.868,95.437,540.566,538.899,0.0
49750.0,STARLINK-3236,PAYLOAD,2023-02-05 14:12:27,15.08834461,0.0001198,53.2148,173.3455,105.3899,254.7225,1.0829e-05,-1.16e-06,0.0,0 STARLINK-3236,1 49750U 21115AC  23036.59198758 -.00000116  00000-0  10829-4 0  9994,2 49750  53.2148 173.3455 0001198 105.3899 254.7225 15.08834461 65235,6917.897,95.438,540.591,538.934,0.0
